TITAN 4B R/B            
1 26474U 00047B   22327.98450699  .00001017  00000+0  94973-4 0  9994
2 26474  67.9917 145.5901 0058898 296.8668  62.6461 14.97393503212321
ENVISAT                 
1 27386U 02009A   22328.48438931  .00000114  00000+0  51293-4 0  9993
2 27386  98.2043 302.2466 0001310  86.8071  23.4960 14.38188590 86467
IDEFIX & ARIANE 42P R/B 
1 27422U 02021B   22328.46065025  .00000153  00000+0  76530-4 0  9990
2 27422  98.4681 269.7781 0013019 121.9064 238.3387 14.29491131 72314
AQUA                    
1 27424U 02022A   22328.47337013  .00000526  00000+0  12598-3 0  9990
2 27424  98.2644 268.9717 0001963  81.8724  33.0415 14.57481340 93491
CZ-4B R/B               
1 27432U 02024C   22328.51489740  .00000017  00000+0  32654-4 0  9992
2 27432  99.0482 355.7919 0050354 183.7451 301.7665 14.14163168 59442
MIDORI II (ADEOS-II)    
1 27597U 02056A   22328.47958766  .00000152  00000+0  79521-4 0  9997
2 27597  98.6248 270.0685 0000157  59.1672 300.9524 14.27688388 38807
H-2A R/B                
1 27601U 02056E   22328.50101309  .00000189  00000+0  82479-4 0  9996
2 27601  98.1816 326.0852 0072632 143.0962  19.4696 14.32155133 42089
CZ-4B R/B               
1 28059U 03049C   22328.43167861  .00000266  00000+0  75468-4 0  9990
2 28059  98.5359 267.8524 0048927 299.4879  60.1441 14.52894807 12048
CZ-2C R/B               
1 28222U 04012C   22328.51219965  .00003304  00000+0  18225-3 0  9998
2 28222  97.7883 312.5994 0042131 222.2574 252.0900 15.13968462 20441
SL-16 R/B               
1 28353U 04021B   22328.48368396  .00000280  00000+0  17141-3 0  9998
2 28353  71.0021 232.6303 0003323  46.0173 314.1223 14.14290903952976
CZ-4B R/B               
1 28415U 04035C   22328.52180240  .00002685  00000+0  16979-3 0  9996
2 28415  97.4974   5.4206 0048975 189.6060 170.4238 15.08880862997727
CZ-2C R/B               
1 28480U 04046B   22328.46813136  .00000143  00000+0  68463-4 0  9993
2 28480  98.0839 303.7434 0142758 108.0903 253.5888 14.25884411937245
ARIANE 5 R/B            
1 28499U 04049H   22328.30436922  .00000555  00000+0  75019-4 0  9995
2 28499  98.1147  86.6680 0089857 278.2238 109.7875 14.80638980967733
CZ-2D R/B               
1 28738U 05024B   22328.44965613  .00003071  00000+0  16781-3 0  9990
2 28738  97.3528 331.1765 0010890 353.1652   6.9430 15.14979654955960
SUZAKU (ASTRO-EII)      
1 28773U 05025A   22328.40147716  .00006432  00000+0  26162-3 0  9990
2 28773  31.3810 334.8731 0004657 192.4464 167.6070 15.23090234959410
ALOS (DAICHI)           
1 28931U 06002A   22310.47227537 -.00000030  00000+0  29392-5 0  9999
2 28931  97.9551 270.1655 0001426 133.0925 227.0374 14.63410704895190
H-2A R/B                
1 28932U 06002B   22328.21496540  .00002068  00000+0  18606-3 0  9999
2 28932  98.2717  19.3257 0084132 287.7829  71.4223 14.94246257913891
AKARI (ASTRO-F)         
1 28939U 06005A   22328.26053266  .00036158  00000+0  47013-3 0  9999
2 28939  98.1882  63.3765 0054573  62.7451 297.9346 15.56885435917847
CZ-4B R/B               
1 29093U 06015B   22328.17446798  .00041343  00000+0  33024-3 0  9997
2 29093  97.5710 199.5751 0027347 314.1739  45.7275 15.70503135924513
RESURS-DK 1             
1 29228U 06021A   22328.49854381  .00001110  00000+0  88067-4 0  9996
2 29228  69.9356  81.0254 0005141 213.1406 146.9434 15.03664198906437
GENESIS 1               
1 29252U 06029A   22328.26549912  .00004369  00000+0  19173-3 0  9997
2 29252  64.5220 265.7621 0050066 238.6226 120.9997 15.22292330903284
CZ-4B R/B               
1 29507U 06046C   22328.08870651  .00001437  00000+0  11091-3 0  9990
2 29507  97.7142 357.4547 0046000  56.8087 303.7536 15.02370863878830
CZ-2C R/B               
1 31114U 07010B   22328.42637219  .00000031  00000+0  32808-4 0  9997
2 31114  98.2538 130.6073 0059486 190.3458 169.6500 14.19471817809253
COSMO-SKYMED 1          
1 31598U 07023A   22328.26687086  .00000279  00000+0  41636-4 0  9999
2 31598  97.8875 149.6618 0001460  90.9794 269.1592 14.82154740836632
GENESIS 2               
1 31789U 07028A   22328.45672601  .00005197  00000+0  23131-3 0  9997
2 31789  64.4956 308.7327 0059042 290.2978  69.1807 15.21097944850221
COSMOS 2428             
1 31792U 07029A   22328.38510602 -.00000134  00000+0 -46389-4 0  9995
2 31792  70.9511 204.4375 0009079 182.2499 177.8582 14.12597804794438
SL-16 R/B               
1 31793U 07029B   22328.37476269  .00000331  00000+0  19755-3 0  9998
2 31793  70.9745 176.9002 0002004 278.5472 253.7501 14.14487360795476
KORONAS-FOTON           
1 33504U 09003A   22328.35846233  .00002227  00000+0  10723-3 0  9996
2 33504  82.4430  56.3160 0019445  77.3565 282.9841 15.18074171762212
CZ-2C R/B               
1 37731U 11030B   22328.47366767  .00000743  00000+0  11424-3 0  9997
2 37731  97.6899 306.9882 0057431 290.6447 181.0739 14.75298064612643
H-2A R/B                
1 38341U 12025E   22328.24777586  .00001035  00000+0  12560-3 0  9997
2 38341  98.4814 193.9847 0053122 252.4406 107.0998 14.85089274569363
CUSAT 2 & FALCON 9 R/B  
1 39271U 13055G   22328.49104112  .00020668  00000+0  42332-3 0  9993
2 39271  80.9564  18.0565 0497958 342.5413  15.9177 14.70457347480223
SHIJIAN-16 (SJ-16)      
1 39358U 13057A   22328.57391697  .00000574  00000+0  67897-4 0  9994
2 39358  74.9739 287.9490 0017880 139.8413 220.4111 14.86448197492784
CZ-2C R/B               
1 39364U 13059B   22328.11466441  .00007093  00000+0  20981-3 0  9998
2 39364  97.1388  16.1131 0041471 118.2349 242.3091 15.34335641504668
SL-4 R/B                
1 39679U 14021B   22328.28861753  .00001563  00000+0  87076-4 0  9995
2 39679  51.6142 291.0229 0161982 154.3776 206.5336 15.09877757473252
ALOS-2                  
1 39766U 14029A   22328.42420595 -.00000052  00000+0 -75322-7 0  9999
2 39766  97.9230  63.2624 0001279  88.3487 271.7845 14.79471338459282
CZ-2C R/B               
1 40306U 14071B   22328.53253431  .00106209  00000+0  48857-3 0  9991
2 40306  97.4257 311.9704 0010461 110.6879 249.5513 15.83240477452043
SL-27 R/B               
1 40354U 14084B   22328.43966591  .00005968  00000+0  12024-3 0  9992
2 40354  74.7361 341.8608 0030325  77.4294 283.0310 15.46229782445301
YAOGAN-29               
1 41038U 15069A   22328.41289699  .00000310  00000+0  46964-4 0  9998
2 41038  98.0618 329.4130 0000928  37.1710 322.9567 14.80995209377963
ASTRO-H (HITOMI)        
1 41337U 16012A   22328.48194015  .00001384  00000+0  10224-3 0  9994
2 41337  31.0039 123.6165 0011939 231.1343 128.8227 14.99864277371165
HXMT (HUIYAN)           
1 42758U 17034A   22328.53246850  .00003015  00000+0  18784-3 0  9990
2 42758  43.0164 187.3783 0009878 216.3223 222.7632 15.11484917300394
CZ-2C R/B               
1 43521U 18054D   22328.46985239  .00003390  00000+0  16911-3 0  9991
2 43521  35.1525  86.0696 0076569  60.4777 300.3546 15.14553280243944
AEOLUS                  
1 43600U 18066A   22328.48783818  .00087953  00000+0  33821-3 0  9999
2 43600  96.7302 331.7895 0009565 107.5843 252.6476 15.87056192246504
SAOCOM 1A               
1 43641U 18076A   22328.41032030  .00000141  00000+0  24312-4 0  9991
2 43641  97.8857 152.8315 0001369  88.6439 271.4971 14.82149448223425
H-2A R/B                
1 43682U 18084L   22328.46735647  .00002678  00000+0  18513-3 0  9996
2 43682  98.8952 315.8530 0055084  97.5222 263.2263 15.05618178223384
SAOCOM 1B               
1 46265U 20059A   22328.17143875 -.00001329  00000+0 -16048-3 0  9990
2 46265  97.8860 151.6555 0001373  81.5228 278.6190 14.82137838120787
CSS (TIANHE)            
1 48274U 21035A   22328.33225694  .00015899  00000+0  20320-3 0  9998
2 48274  41.4780 323.5802 0005706 299.5997 261.7948 15.58874031 89806
2022-019U               
1 51842U 22019U   22328.39303412  .00005098  00000+0  18874-3 0  9998
2 51842  97.5479  47.3012 0064725 348.4126 139.9897 15.26153839 41152
SZ-13 MODULE            
1 52260U 21092C   22325.98505897  .00056194  00000+0  29187-3 0  9998
2 52260  41.4778 318.7764 0012565 187.5728 172.4930 15.79968912 34203
CZ-2C R/B               
1 52794U 22058K   22328.43663013  .00001692  00000+0  10364-3 0  9991
2 52794  50.1719 136.1006 0101101  12.5121 347.8307 15.12001373 26480
